IRIDIUM 33 DEB          
1 35806U 97051SQ  24282.54577081  .00049795  00000+0  12710-1 0  9994
2 35806  86.3415 208.9788 0020308  75.6634 284.6823 14.50110541800729
IRIDIUM 33 DEB          
1 35809U 97051ST  24282.94354267  .00027513  00000+0  53208-2 0  9992
2 35809  86.3367 169.1732 0015390 300.5558  59.4135 14.63161454804939
IRIDIUM 33 DEB          
1 35848U 97051SY  24280.10305531  .00044615  00000+0  83167-2 0  9990
2 35848  86.4005 208.5904 0007020 292.8048  67.2423 14.64777219603240
IRIDIUM 33 DEB          
1 35850U 97051TA  24281.97901048  .00037604  00000+0  69130-2 0  9998
2 35850  86.3569 178.1649 0010020 264.7874  95.2196 14.65427909650175
IRIDIUM 33 DEB          
1 35915U 97051TY  24283.01613392  .00033777  00000+0  61370-2 0  9994
2 35915  86.3539 177.0423 0012411 266.6141  93.3652 14.65958830 17564
IRIDIUM 33 DEB          
1 35921U 97051UE  24281.41872331  .00588936  00000+0  50791-1 0  9999
2 35921  86.4023 329.4257 0048020 255.9504 103.6384 14.94207047590930
IRIDIUM 33 DEB          
1 35929U 97051UN  24282.38420265  .00208313  00000+0  28945-1 0  9993
2 35929  86.3465 152.2270 0022792 110.9764 249.3897 14.76476061813748
IRIDIUM 33 DEB          
1 36011U 97051US  24277.62715602  .00008941  00000+0  28969-2 0  9991
2 36011  86.3437 221.8481 0016168 206.3609 274.9484 14.38815222791852
IRIDIUM 33 DEB          
1 36080U 97051VM  24282.48878490  .00021606  00000+0  63827-2 0  9997
2 36080  86.3262 194.9085 0019171 142.6541 217.5997 14.43282197793655
IRIDIUM 33 DEB          
1 36083U 97051VQ  24272.14689600  .00005343  00000+0  16795-2 0  9997
2 36083  86.3467 223.3147 0024596 239.1485 120.7295 14.40162148792113
IRIDIUM 33 DEB          
1 36390U 97051VU  24282.85866255  .00023231  00000+0  44258-2 0  9991
2 36390  86.2959 134.9018 0035891 209.3190 150.6009 14.63519161820185
IRIDIUM 33 DEB          
1 36483U 97051VZ  24281.14702818  .00012995  00000+0  39021-2 0  9996
2 36483  86.3788 236.6931 0011993 111.1470 249.1013 14.42587193589156
IRIDIUM 33 DEB          
1 36490U 97051WG  24283.53475199  .00028202  00000+0  55341-2 0  9999
2 36490  86.3758 201.9656 0007343  75.1721 285.0303 14.62557160801771
IRIDIUM 33 DEB          
1 36493U 97051WK  24283.54626189  .00019109  00000+0  42867-2 0  9995
2 36493  86.3660 201.0544 0015757  21.2770 338.9090 14.56406367808411
IRIDIUM 33 DEB          
1 36566U 97051WV  24261.57918700  .00666972  00000+0  54626-1 0  9999
2 36566  86.3726  10.7720 0049631 215.3622 144.4314 14.95873446782752
IRIDIUM 33 DEB          
1 37562U 97051XX  24282.63025109  .00055253  00000+0  14218-1 0  9995
2 37562  86.3768 230.0962 0030437 108.4690  64.9945 14.49534289800802
IRIDIUM 33 DEB          
1 37565U 97051YA  24282.02956010  .00011985  00000+0  32070-2 0  9996
2 37565  86.3574 196.6711 0016075  79.7197 280.5818 14.48118734595957
IRIDIUM 33 DEB          
1 38017U 97051YD  24282.43013384  .00552596  00000+0  18001+0 0  9995
2 38017  86.3314 350.5281 0140825  77.6629 284.0289 14.30971817552126
