OBJECT_NAME,OBJECT_ID,EPOCH,MEAN_MOTION,ECCENTRICITY,INCLINATION,RA_OF_ASC_NODE,ARG_OF_PERICENTER,MEAN_ANOMALY,EPHEMERIS_TYPE,CLASSIFICATION_TYPE,NORAD_CAT_ID,ELEMENT_SET_NO,REV_AT_EPOCH,BSTAR,MEAN_MOTION_DOT,MEAN_MOTION_DDOT
IRIDIUM 33 DEB,1997-051SQ,2024-10-08T13:05:54.597984,14.50110541,0.0020308,86.3415,208.9788,75.6634,284.6823,0,U,35806,999,80072,1.271E-02,4.9795E-04,0
IRIDIUM 33 DEB,1997-051ST,2024-10-08T22:38:42.086688,14.63161454,0.001539,86.3367,169.1732,300.5558,59.4135,0,U,35809,999,80493,5.3208E-03,2.7513E-04,0
IRIDIUM 33 DEB,1997-051SY,2024-10-06T02:28:23.978784,14.64777219,0.000702,86.4005,208.5904,292.8048,67.2423,0,U,35848,999,60324,8.3167E-03,4.4615E-04,0
IRIDIUM 33 DEB,1997-051TA,2024-10-07T23:29:46.505472,14.65427909,0.001002,86.3569,178.1649,264.7874,95.2196,0,U,35850,999,65017,6.913E-03,3.7604E-04,0
IRIDIUM 33 DEB,1997-051TY,2024-10-09T00:23:13.970688,14.65958830,0.0012411,86.3539,177.0423,266.6141,93.3652,0,U,35915,999,1756,6.137E-03,3.3777E-04,0
IRIDIUM 33 DEB,1997-051UE,2024-10-07T10:02:57.693984,14.94207047,0.004802,86.4023,329.4257,255.9504,103.6384,0,U,35921,999,59093,5.0791E-02,5.88936E-03,0
IRIDIUM 33 DEB,1997-051UN,2024-10-08T09:13:15.108960,14.76476061,0.0022792,86.3465,152.2270,110.9764,249.3897,0,U,35929,999,81374,2.8945E-02,2.08313E-03,0
IRIDIUM 33 DEB,1997-051US,2024-10-03T15:03:06.280128,14.38815222,0.0016168,86.3437,221.8481,206.3609,274.9484,0,U,36011,999,79185,2.8969E-03,8.941E-05,0
IRIDIUM 33 DEB,1997-051VM,2024-10-08T11:43:51.015360,14.43282197,0.0019171,86.3262,194.9085,142.6541,217.5997,0,U,36080,999,79365,6.3827E-03,2.1606E-04,0
IRIDIUM 33 DEB,1997-051VQ,2024-09-28T03:31:31.814400,14.40162148,0.0024596,86.3467,223.3147,239.1485,120.7295,0,U,36083,999,79211,1.6795E-03,5.343E-05,0
IRIDIUM 33 DEB,1997-051VU,2024-10-08T20:36:28.444320,14.63519161,0.0035891,86.2959,134.9018,209.3190,150.6009,0,U,36390,999,82018,4.4258E-03,2.3231E-04,0
IRIDIUM 33 DEB,1997-051VZ,2024-10-07T03:31:43.234752,14.42587193,0.0011993,86.3788,236.6931,111.1470,249.1013,0,U,36483,999,58915,3.9021E-03,1.2995E-04,0
IRIDIUM 33 DEB,1997-051WG,2024-10-09T12:50:02.571936,14.62557160,0.0007343,86.3758,201.9656,75.1721,285.0303,0,U,36490,999,80179,5.5341E-03,2.8202E-04,0
IRIDIUM 33 DEB,1997-051WK,2024-10-09T13:06:37.027296,14.56406367,0.0015757,86.3660,201.0544,21.2770,338.9090,0,U,36493,999,80841,4.2867E-03,1.9109E-04,0
IRIDIUM 33 DEB,1997-051WV,2024-09-17T13:54:01.756800,14.95873446,0.0049631,86.3726,10.7720,215.3622,144.4314,0,U,36566,999,78275,5.4626E-02,6.66972E-03,0
IRIDIUM 33 DEB,1997-051XX,2024-10-08T15:07:33.694176,14.49534289,0.0030437,86.3768,230.0962,108.4690,64.9945,0,U,37562,999,80080,1.4218E-02,5.5253E-04,0
IRIDIUM 33 DEB,1997-051YA,2024-10-08T00:42:33.992640,14.48118734,0.0016075,86.3574,196.6711,79.7197,280.5818,0,U,37565,999,59595,3.207E-03,1.1985E-04,0
IRIDIUM 33 DEB,1997-051YD,2024-10-08T10:19:23.563776,14.30971817,0.0140825,86.3314,350.5281,77.6629,284.0289,0,U,38017,999,55212,1.8001E-01,5.52596E-03,0
